{"shop":[{"name":"Magazin 1","address":"Kosmonavtov 48","opening_hours":"10-17"},{"name":"Magazin 2","address":"Kosmonavtov 48","opening_hours":"10-17"},{"name":"Magazin 3","address":"Kosmonavtov 48","opening_hours":"10-17"},{"name":"Magazin 4","address":"Kosmonavtov 48","opening_hours":"10-17"},{"name":"Magazin 5","address":"Kosmonavtov 48","opening_hours":"10-17"},{"name":"Magazin 6","address":"Kosmonavtov 48","opening_hours":"10-17"},{"name":"Magazin 7","address":"Kosmonavtov 48","opening_hours":"10-17"},{"name":"Magazin 8","address":"Kosmonavtov 48","opening_hours":"10-17"},{"name":"Magazin 9","address":"Kosmonavtov 48","opening_hours":"10-17"},{"name":"Magazin 10","address":"Kosmonavtov 48","opening_hours":"10-17"},{"name":"Magazin 11","address":"Kosmonavtov 48","opening_hours":"10-17"},{"name":"Magazin 12","address":"Kosmonavtov 48","opening_hours":"10-17"},{"name":"Magazin 13","address":"Kosmonavtov 48","opening_hours":"10-17"},{"name":"Magazin 14","address":"Kosmonavtov 48","opening_hours":"10-17"},{"name":"Magazin 15","address":"Kosmonavtov 48","opening_hours":"10-17"},{"name":"Magazin 16","address":"Kosmonavtov 48","opening_hours":"10-17"},{"name":"Magazin 17","address":"Kosmonavtov 48","opening_hours":"10-17"},{"name":"Magazin 18","address":"Kosmonavtov 48","opening_hours":"10-17"},{"name":"Magazin 19","address":"Kosmonavtov 48","opening_hours":"10-17"},{"name":"Magazin 20","address":"Kosmonavtov 48","opening_hours":"10-17"},{"name":"Magazin 21","address":"Kosmonavtov 48","opening_hours":"10-17"},{"name":"Magazin 22","address":"Kosmonavtov 48","opening_hours":"10-17"},{"name":"Magazin 23","address":"Kosmonavtov 48","opening_hours":"10-17"},{"name":"Magazin 24","address":"Kosmonavtov 48","opening_hours":"10-17"},{"name":"Magazin 25","address":"Kosmonavtov 48","opening_hours":"10-17"},{"name":"Magazin 26","address":"Kosmonavtov 48","opening_hours":"10-17"},{"name":"Magazin 27","address":"Kosmonavtov 48","opening_hours":"10-17"},{"name":"Magazin 28","address":"Kosmonavtov 48","opening_hours":"10-17"},{"name":"Magazin 29","address":"Kosmonavtov 48","opening_hours":"10-17"},{"name":"Magazin 30","address":"Kosmonavtov 48","opening_hours":"10-17"}]}